NAVSTAR 48 (USA 151)    
1 26407U 00040A   26160.32511312  .00000060  00000+0  00000+0 0  9990
2 26407  54.8524 215.4748 0121134 302.4295  64.7131  2.00557610189799
NAVSTAR 51 (USA 166)    
1 27663U 03005A   26160.21826243  .00000060  00000+0  00000+0 0  9999
2 27663  54.8834 215.2857 0147952  53.0758  12.8205  2.00560980171157
NAVSTAR 54 (USA 177)    
1 28190U 04009A   26160.39304169 -.00000040  00000+0  00000+0 0  9996
2 28190  54.8364 276.0023 0115818 172.7383 172.6693  2.00554955162780
NAVSTAR 56 (USA 180)    
1 28474U 04045A   26158.35392840 -.00000059  00000+0  00000+0 0  9997
2 28474  55.1426 325.2921 0169828 316.1566  61.9153  2.00555496158236
NAVSTAR 57 (USA 183)    
1 28874U 05038A   26160.37957303 -.00000038  00000+0  00000+0 0  9997
2 28874  54.8846 273.4928 0127814 296.0939  67.9233  2.00566187151688
INMARSAT 4-F2           
1 28899U 05044A   26160.63601264 -.00000246  00000+0  00000+0 0  9993
2 28899   5.0841  43.7024 0002935  32.8048 193.9588  1.00272039 75447
NAVSTAR 58 (USA 190)    
1 29486U 06042A   26160.26736942  .00000113  00000+0  00000+0 0  9998
2 29486  54.7097 151.6534 0106436  54.2234 127.1175  2.00570326144231
NAVSTAR 59 (USA 192)    
1 29601U 06052A   26159.94234806  .00000059  00000+0  00000+0 0  9992
2 29601  54.9359 214.3332 0085354  90.7851 270.2705  2.00557765143242
NAVSTAR 60 (USA 196)    
1 32260U 07047A   26160.24724118 -.00000019  00000+0  00000+0 0  9994
2 32260  54.0894  80.3929 0166407  87.2179 274.6850  2.00555611136652
COSMOS 2433 [GLONASS-M] 
1 32275U 07052A   26159.93825065 -.00000030  00000+0  00000+0 0  9996
2 32275  65.5817 316.2114 0002178 191.2696 168.7248  2.13104388144884
COSMOS 2432 [GLONASS-M] 
1 32276U 07052B   26160.45302045 -.00000032  00000+0  00000+0 0  9996
2 32276  65.5988 316.3216 0007853 333.7560   5.0648  2.13103447144912
NAVSTAR 61 (USA 199)    
1 32384U 07062A   26159.58599712 -.00000038  00000+0  00000+0 0  9994
2 32384  55.0388 274.4987 0035585 165.0710 204.7147  2.00559578135340
COSMOS 2434 [GLONASS-M] 
1 32393U 07065A   26158.24705932  .00000085  00000+0  00000+0 0  9993
2 32393  64.3173 192.2510 0001095 341.2525  51.1973  2.13101527143560
COSMOS 2436 [GLONASS-M] 
1 32395U 07065C   26160.14161100  .00000105  00000+0  00000+0 0  9993
2 32395  64.3259 192.2593 0017246 354.2289 184.0033  2.13100327143553
NAVSTAR 62 (USA 201)    
1 32711U 08012A   26160.15929060  .00000112  00000+0  00000+0 0  9994
2 32711  54.4963 150.2454 0211107 247.7440 110.0124  2.00572211133598
NAVSTAR 64 (USA 206)    
1 35752U 09043A   26159.30365117 -.00000067  00000+0  00000+0 0  9999
2 35752  56.2048  27.8007 0053714  82.8286  29.7907  2.00554745123188
COSMOS 2456 [GLONASS-M] 
1 36111U 09070A   26157.82365414 -.00000013  00000+0  00000+0 0  9995
2 36111  65.0054  71.3252 0005025 326.4332 259.2835  2.13103969128200
COSMOS 2457 [GLONASS-M] 
1 36112U 09070B   26160.40724309 -.00000024  00000+0  00000+0 0  9998
2 36112  64.9923  71.0818 0002473 128.0679  47.1802  2.13101358128267
COSMOS 2460 [GLONASS-M] 
1 36402U 10007C   26156.93373906 -.00000030  00000+0  00000+0 0  9995
2 36402  65.4275 314.8474 0002122 103.7485 288.7249  2.13101712126492
NAVSTAR 65 (USA 213)    
1 36585U 10022A   26160.54415769  .00000075  00000+0  00000+0 0  9998
2 36585  54.2709 208.8701 0126320  66.1256 340.5382  2.00562026117447
BEIDOU-2 IGSO-1         
1 36828U 10036A   26160.93350646 -.00000029  00000+0  00000+0 0  9998
2 36828  54.3013 163.0252 0059281 225.1529 313.8504  1.00274536 58022
BEIDOU-2 G4             
1 37210U 10057A   26160.87257302 -.00000096  00000+0  00000+0 0  9999
2 37210   3.6277  68.9906 0004902 199.3786 104.0153  1.00271750 57218
BEIDOU-2 IGSO-2         
1 37256U 10068A   26160.74236155 -.00000225  00000+0  00000+0 0  9994
2 37256  47.5626 271.9271 0055147 212.2269 148.8480  1.00285942 56724
BEIDOU-2 IGSO-3         
1 37384U 11013A   26160.59429605 -.00000192  00000+0  00000+0 0  9997
2 37384  62.3960  40.2253 0034379 184.4451 355.1654  1.00270057 55586
GSAT-8                  
1 37605U 11022A   26160.70924907  .00000102  00000+0  00000+0 0  9991
2 37605   2.1107  81.9130 0002269 208.8564 277.7094  1.00271295 53144
BEIDOU-2 IGSO-4         
1 37763U 11038A   26160.68953514  .00000092  00000+0  00000+0 0  9994
2 37763  54.5986 165.7393 0159307 231.3987 202.2417  1.00286741 54575
GSAT0101 (GALILEO-PFM)  
1 37846U 11060A   26157.28990272 -.00000066  00000+0  00000+0 0  9997
2 37846  56.9979 342.0567 0003295  48.4785 311.5631  1.70475774 90930
GSAT0102 (GALILEO-FM2)  
1 37847U 11060B   26158.40220003 -.00000063  00000+0  00000+0 0  9998
2 37847  57.0009 342.0270 0003434  13.7700 354.5257  1.70476015 90968
COSMOS 2476 [GLONASS-M] 
1 37867U 11064A   26160.70031370 -.00000023  00000+0  00000+0 0  9993
2 37867  65.2659  73.1242 0022983 239.4709 301.4642  2.13104033113601
COSMOS 2477 [GLONASS-M] 
1 37868U 11064B   26160.39259507 -.00000021  00000+0  00000+0 0  9991
2 37868  65.2721  73.2137 0019994 240.7099 244.5150  2.13103206113591
COSMOS 2475 [GLONASS-M] 
1 37869U 11064C   26160.51871549 -.00000022  00000+0  00000+0 0  9993
2 37869  65.2789  73.2312 0025812 253.5713 283.5609  2.13102025113604
